NORAD_CAT_ID,OBJECT_NAME,OBJECT_TYPE,EPOCH,MEAN_MOTION,ECCENTRICITY,INCLINATION,RA_OF_ASC_NODE,ARG_OF_PERICENTER,MEAN_ANOMALY,BSTAR,MEAN_MOTION_DOT,MEAN_MOTION_DDOT,TLE_LINE0,TLE_LINE1,TLE_LINE2,SEMIMAJOR_AXIS,PERIOD,APOGEE,PERIGEE,DECAYED
53611.0,STARLINK-4650,PAYLOAD,2022-12-29 11:30:36,15.08831691,0.0001439,53.2189,69.6605,45.7886,314.3224,-0.00019977,-3.465e-05,0.0,0 STARLINK-4650,1 53611U 22104Z   22363.47958754 -.00003465  00000-0 -19977-3 0  9996,2 53611  53.2189  69.6605 0001439  45.7886 314.3224 15.08831691 19699,6917.906,95.438,540.766,538.775,0.0
53611.0,STARLINK-4650,PAYLOAD,2022-12-29 21:02:55,15.08824676,0.0001485,53.2198,67.8769,51.5534,308.5592,-0.00016007,-2.833e-05,0.0,0 STARLINK-4650,1 53611U 22104Z   22363.87703371 -.00002833  00000-0 -16007-3 0  9992,2 53611  53.2198  67.8769 0001485  51.5534 308.5592 15.08824676 19065,6917.927,95.439,540.82,538.765,0.0
53611.0,STARLINK-4650,PAYLOAD,2022-12-30 11:21:23,15.08835308,0.0001588,53.2196,65.2042,37.3449,322.7653,1.7577e-05,-8e-08,0.0,0 STARLINK-4650,1 53611U 22104Z   22364.47318452 -.00000008  00000-0  17577-4 0  9996,2 53611  53.2196  65.2042 0001588  37.3449 322.7653 15.08835308 19150,6917.895,95.438,540.8580000000002,538.661,0.0
53611.0,STARLINK-4650,PAYLOAD,2022-12-30 14:32:08,15.08841998,0.0001544,53.2193,64.6061,37.9664,322.1436,5.0997e-05,5.24e-06,0.0,0 STARLINK-4650,1 53611U 22104Z   22364.60565901  .00000524  00000-0  50997-4 0  9999,2 53611  53.2193  64.6061 0001544  37.9664 322.1436 15.08841998 19175,6917.874,95.437,540.807,538.6709999999998,0.0
53611.0,STARLINK-4650,PAYLOAD,2022-12-31 04:50:36,15.08843825,0.000155,53.2195,61.9313,37.5733,322.5367,0.00029658,4.436e-05,0.0,0 STARLINK-4650,1 53611U 22104Z   22365.20180721  .00004436  00000-0  29658-3 0  9994,2 53611  53.2195  61.9313 0001550  37.5733 322.5367 15.08843825 19265,6917.869000000002,95.437,540.806,538.661,0.0
53611.0,STARLINK-4650,PAYLOAD,2022-12-31 12:47:32,15.08838605,0.0001855,53.2198,60.4446,52.3726,307.7434,0.00021456,3.128e-05,0.0,0 STARLINK-4650,1 53611U 22104Z   22365.53301329  .00003128  00000-0  21456-3 0  9994,2 53611  53.2198  60.4446 0001855  52.3726 307.7434 15.08838605 19310,6917.885,95.438,541.033,538.466,0.0
53611.0,STARLINK-4650,PAYLOAD,2023-01-01 04:41:24,15.08831963,0.0001696,53.2201,57.4727,51.9198,308.1947,-4.3528e-05,-9.81e-06,0.0,0 STARLINK-4650,1 53611U 22104Z   23001.19542739 -.00000981  00000-0 -43528-4 0  9997,2 53611  53.2201  57.4727 0001696  51.9198 308.1947 15.08831963 19419,6917.905,95.438,540.943,538.597,0.0
53611.0,STARLINK-4650,PAYLOAD,2023-01-01 12:38:22,15.08817807,0.0001986999999999,53.2203,55.9836,46.9822,313.1336,-0.00024288,-4.149e-05,0.0,0 STARLINK-4650,1 53611U 22104Z   23001.52664535 -.00004149  00000-0 -24288-3 0  9994,2 53611  53.2203  55.9836 0001987  46.9822 313.1336 15.08817807 19460,6917.948,95.439,541.188,538.439,0.0
53611.0,STARLINK-4650,PAYLOAD,2023-01-01 20:35:17,15.08825596,0.0001761999999999,53.2191,54.4988,51.6935,308.4216,-0.00022876,-3.926e-05,0.0,0 STARLINK-4650,1 53611U 22104Z   23001.85784256 -.00003926  00000-0 -22876-3 0  9996,2 53611  53.2191  54.4988 0001762  51.6935 308.4216 15.08825596 20209,6917.924,95.438,541.008,538.57,0.0
53611.0,STARLINK-4650,PAYLOAD,2023-01-02 09:18:21,15.08837656,0.0001785,53.2193,52.1191,45.6843,314.4296,-0.0001657,-2.924e-05,0.0,0 STARLINK-4650,1 53611U 22104Z   23002.38775458 -.00002924  00000-0 -16570-3 0  9990,2 53611  53.2193  52.1191 0001785  45.6843 314.4296 15.08837656 19593,6917.888000000001,95.438,540.987,538.518,0.0
53611.0,STARLINK-4650,PAYLOAD,2023-01-02 12:29:07,15.08842306,0.0001892,53.2194,51.524,53.6726,306.444,-0.0001094,-2.029e-05,0.0,0 STARLINK-4650,1 53611U 22104Z   23002.52023047 -.00002029  00000-0 -10940-3 0  9997,2 53611  53.2194  51.5240 0001892  53.6726 306.4440 15.08842306 20301,6917.873000000001,95.437,541.047,538.429,0.0
53611.0,STARLINK-4650,PAYLOAD,2023-01-02 20:26:03,15.08843722,0.0001966999999999,53.2196,50.0376,51.6943,308.4226,1.979e-05,2.7e-07,0.0,0 STARLINK-4650,1 53611U 22104Z   23002.85142531  .00000027  00000-0  19790-4 0  9990,2 53611  53.2196  50.0376 0001967  51.6943 308.4226 15.08843722 19663,6917.869000000002,95.437,541.095,538.373,0.0
53611.0,STARLINK-4650,PAYLOAD,2023-01-03 02:47:36,15.08832657,0.0001888,53.2194,48.8485,51.7324,308.3838,0.00011185,1.492e-05,0.0,0 STARLINK-4650,1 53611U 22104Z   23003.11638909  .00001492  00000-0  11185-3 0  9995,2 53611  53.2194  48.8485 0001888  51.7324 308.3838 15.08832657 19701,6917.903,95.438,541.0740000000002,538.462,0.0
53611.0,STARLINK-4650,PAYLOAD,2023-01-03 12:19:55,15.08831607,0.0001876999999999,53.2193,47.0628,56.8618,303.2555,0.00014183,1.969e-05,0.0,0 STARLINK-4650,1 53611U 22104Z   23003.51383135  .00001969  00000-0  14183-3 0  9997,2 53611  53.2193  47.0628 0001877  56.8618 303.2555 15.08831607 20458,6917.906,95.438,541.07,538.4730000000002,0.0
53611.0,STARLINK-4650,PAYLOAD,2023-01-04 12:10:41,15.08843057,0.0001966999999999,53.2198,42.6026,57.1902,302.928,7.769600000000001e-05,9.49e-06,0.0,0 STARLINK-4650,1 53611U 22104Z   23004.50743012  .00000949  00000-0  77696-4 0  9997,2 53611  53.2198  42.6026 0001967  57.1902 302.9280 15.08843057 19918,6917.871,95.437,541.097,538.375,0.0
53611.0,STARLINK-4650,PAYLOAD,2023-01-05 08:50:41,15.08852327,0.0001932,53.2198,38.7389,51.0979,309.0185,0.00011053,1.472e-05,0.0,0 STARLINK-4650,1 53611U 22104Z   23005.36853647  .00001472  00000-0  11053-3 0  9994,2 53611  53.2198  38.7389 0001932  51.0979 309.0185 15.08852327 20043,6917.843000000003,95.437,541.044,538.371,0.0
53611.0,STARLINK-4650,PAYLOAD,2023-01-05 12:01:27,15.08852661,0.000192,53.2204,38.1445,45.476000000000006,314.6389,9.1008e-05,1.161e-05,0.0,0 STARLINK-4650,1 53611U 22104Z   23005.50101621  .00001161  00000-0  91008-4 0  9992,2 53611  53.2204  38.1445 0001920  45.4760 314.6389 15.08852661 20757,6917.842,95.437,541.035,538.378,0.0
53611.0,STARLINK-4650,PAYLOAD,2023-01-06 08:41:29,15.08841296,0.0001751999999999,53.2202,34.2798,52.4521,307.663,-9.8686e-05,-1.858e-05,0.0,0 STARLINK-4650,1 53611U 22104Z   23006.36214764 -.00001858  00000-0 -98686-4 0  9994,2 53611  53.2202  34.2798 0001752  52.4521 307.6630 15.08841296 20190,6917.876,95.437,540.953,538.529,0.0
53611.0,STARLINK-4650,PAYLOAD,2023-01-06 13:27:40,15.08822972,0.0001699,53.2199,33.3865,41.2365,318.8755,-0.00024744,-4.222e-05,0.0,0 STARLINK-4650,1 53611U 22104Z   23006.56088338 -.00004222  00000-0 -24744-3 0  9993,2 53611  53.2199  33.3865 0001699  41.2365 318.8755 15.08822972 20228,6917.932,95.439,540.9730000000002,538.622,0.0
53611.0,STARLINK-4650,PAYLOAD,2023-01-07 02:10:44,15.08835654,0.0001798,53.2201,31.0084,44.8345,315.2792,-0.00011592,-2.132e-05,0.0,0 STARLINK-4650,1 53611U 22104Z   23007.09079351 -.00002132  00000-0 -11592-3 0  9992,2 53611  53.2201  31.0084 0001798  44.8345 315.2792 15.08835654 20309,6917.894,95.438,541.003,538.515,0.0
53611.0,STARLINK-4650,PAYLOAD,2023-01-07 08:32:16,15.0884773,0.0002353,53.2197,29.8178,62.8821,297.2411,-2.2592e-05,-6.48e-06,0.0,0 STARLINK-4650,1 53611U 22104Z   23007.35574335 -.00000648  00000-0 -22592-4 0  9996,2 53611  53.2197  29.8178 0002353  62.8821 297.2411 15.08847730 20348,6917.857,95.437,541.35,538.094,0.0
53611.0,STARLINK-4650,PAYLOAD,2023-01-07 11:43:02,15.08843539,0.0001831,53.2202,29.2246,47.162,312.9525,-2.8708e-05,-7.45e-06,0.0,0 STARLINK-4650,1 53611U 22104Z   23007.48822683 -.00000745  00000-0 -28708-4 0  9995,2 53611  53.2202  29.2246 0001831  47.1620 312.9525 15.08843539 20364,6917.87,95.437,541.001,538.4680000000002,0.0
53611.0,STARLINK-4650,PAYLOAD,2023-01-08 02:01:32,15.08812295,0.000193,53.2214,26.5481,46.7999,313.3154,4.5807e-05,4.4e-06,0.0,0 STARLINK-4650,1 53611U 22104Z   23008.08440605  .00000440  00000-0  45807-4 0  9991,2 53611  53.2214  26.5481 0001930  46.7999 313.3154 15.08812295 20450,6917.965,95.439,541.165,538.495,0.0
53611.0,STARLINK-4650,PAYLOAD,2023-01-08 09:58:28,15.08813753,0.0001952,53.2214,25.0614,49.8458,310.2705,0.00010621,1.401e-05,0.0,0 STARLINK-4650,1 53611U 22104Z   23008.41560819  .00001401  00000-0  10621-3 0  9991,2 53611  53.2214  25.0614 0001952  49.8458 310.2705 15.08813753 21190,6917.960999999998,95.439,541.1759999999998,538.475,0.0
53611.0,STARLINK-4650,PAYLOAD,2023-01-08 17:55:23,15.08822874,0.0001923,53.2201,23.5736,46.0107,314.1044,0.00020498,2.974e-05,0.0,0 STARLINK-4650,1 53611U 22104Z   23008.74680343  .00002974  00000-0  20498-3 0  9991,2 53611  53.2201  23.5736 0001923  46.0107 314.1044 15.08822874 20554,6917.933000000001,95.439,541.128,538.467,0.0
53611.0,STARLINK-4650,PAYLOAD,2023-01-09 13:00:00,15.08851275,0.0001943,53.2197,20.0052,47.7544,312.3613,8.6852e-05,1.095e-05,0.0,0 STARLINK-4650,1 53611U 22104Z   23009.54166984  .00001095  00000-0  86852-4 0  9990,2 53611  53.2197  20.0052 0001943  47.7544 312.3613 15.08851275 20678,6917.846,95.437,541.055,538.367,0.0
53611.0,STARLINK-4650,PAYLOAD,2023-01-09 17:46:09,15.08846598,0.0001802,53.2196,19.1134,47.5455,312.5689,0.00013566,1.872e-05,0.0,0 STARLINK-4650,1 53611U 22104Z   23009.74038990  .00001872  00000-0  13566-3 0  9991,2 53611  53.2196  19.1134 0001802  47.5455 312.5689 15.08846598 21397,6917.86,95.437,540.972,538.479,0.0
53611.0,STARLINK-4650,PAYLOAD,2023-01-10 06:29:15,15.08839007,0.0001848,53.2198,16.7345,48.3131,311.8019,0.00012277,1.666e-05,0.0,0 STARLINK-4650,1 53611U 22104Z   23010.27031511  .00001666  00000-0  12277-3 0  9992,2 53611  53.2198  16.7345 0001848  48.3131 311.8019 15.08839007 20784,6917.883000000002,95.438,541.0269999999998,538.47,0.0
53611.0,STARLINK-4650,PAYLOAD,2023-01-10 08:04:38,15.08837847,0.000171,53.2202,16.4373,45.085,315.0281,0.00010255,1.344e-05,0.0,0 STARLINK-4650,1 53611U 22104Z   23010.33655621  .00001344  00000-0  10255-3 0  9990,2 53611  53.2202  16.4373 0001710  45.0850 315.0281 15.08837847 21483,6917.887,95.438,540.935,538.569,0.0
